[{"OBJECT_NAME":"ONEWEB-0671","OBJECT_ID":"2023-029AL","EPOCH":"2025-12-12T06:01:20.008128","MEAN_MOTION":13.19725327,"ECCENTRICITY":0.00019639,"INCLINATION":87.9195,"RA_OF_ASC_NODE":342.1758,"ARG_OF_PERICENTER":87.2071,"MEAN_ANOMALY":272.9286,"EPHEMERIS_TYPE":0,"CLASSIFICATION_TYPE":"U","NORAD_CAT_ID":55830,"ELEMENT_SET_NO":999,"REV_AT_EPOCH":13424,"BSTAR":0.00024149684,"MEAN_MOTION_DOT":1.1e-6,"MEAN_MOTION_DDOT":0},{"OBJECT_NAME":"ONEWEB-0672","OBJECT_ID":"2023-029AM","EPOCH":"2025-12-12T06:39:24.029280","MEAN_MOTION":13.20770952,"ECCENTRICITY":0.00015808,"INCLINATION":87.9201,"RA_OF_ASC_NODE":311.7113,"ARG_OF_PERICENTER":87.183,"MEAN_ANOMALY":272.9484,"EPHEMERIS_TYPE":0,"CLASSIFICATION_TYPE":"U","NORAD_CAT_ID":55831,"ELEMENT_SET_NO":999,"REV_AT_EPOCH":13647,"BSTAR":0.00026122213,"MEAN_MOTION_DOT":1.19e-6,"MEAN_MOTION_DDOT":0},{"OBJECT_NAME":"ONEWEB-0673","OBJECT_ID":"2023-029AN","EPOCH":"2025-12-12T00:00:50.529312","MEAN_MOTION":13.19726166,"ECCENTRICITY":0.0001927,"INCLINATION":87.921,"RA_OF_ASC_NODE":342.2055,"ARG_OF_PERICENTER":89.005,"MEAN_ANOMALY":271.1303,"EPHEMERIS_TYPE":0,"CLASSIFICATION_TYPE":"U","NORAD_CAT_ID":55832,"ELEMENT_SET_NO":999,"REV_AT_EPOCH":13421,"BSTAR":8.139e-5,"MEAN_MOTION_DOT":4.6e-7,"MEAN_MOTION_DDOT":0},{"OBJECT_NAME":"ONEWEB-0674","OBJECT_ID":"2023-029AP","EPOCH":"2025-12-12T00:10:00.391872","MEAN_MOTION":13.14503654,"ECCENTRICITY":0.0002205,"INCLINATION":87.8987,"RA_OF_ASC_NODE":327.0255,"ARG_OF_PERICENTER":92.8891,"MEAN_ANOMALY":267.2491,"EPHEMERIS_TYPE":0,"CLASSIFICATION_TYPE":"U","NORAD_CAT_ID":55833,"ELEMENT_SET_NO":999,"REV_AT_EPOCH":13482,"BSTAR":0.00025139,"MEAN_MOTION_DOT":1.06e-6,"MEAN_MOTION_DDOT":0},{"OBJECT_NAME":"ONEWEB-0675","OBJECT_ID":"2023-029AQ","EPOCH":"2025-12-12T05:49:57.904320","MEAN_MOTION":13.19724489,"ECCENTRICITY":0.00015231,"INCLINATION":87.9191,"RA_OF_ASC_NODE":342.1857,"ARG_OF_PERICENTER":84.2825,"MEAN_ANOMALY":275.8481,"EPHEMERIS_TYPE":0,"CLASSIFICATION_TYPE":"U","NORAD_CAT_ID":55834,"ELEMENT_SET_NO":999,"REV_AT_EPOCH":13426,"BSTAR":0.00011052163,"MEAN_MOTION_DOT":5.7e-7,"MEAN_MOTION_DDOT":0},{"OBJECT_NAME":"ONEWEB-0720","OBJECT_ID":"2023-029AR","EPOCH":"2025-12-12T05:38:35.491200","MEAN_MOTION":13.19725216,"ECCENTRICITY":0.00020578,"INCLINATION":87.9192,"RA_OF_ASC_NODE":342.1853,"ARG_OF_PERICENTER":80.3491,"MEAN_ANOMALY":279.7875,"EPHEMERIS_TYPE":0,"CLASSIFICATION_TYPE":"U","NORAD_CAT_ID":55835,"ELEMENT_SET_NO":999,"REV_AT_EPOCH":13418,"BSTAR":0.00013574549,"MEAN_MOTION_DOT":6.7e-7,"MEAN_MOTION_DDOT":0},{"OBJECT_NAME":"ONEWEB-0537","OBJECT_ID":"2023-043A","EPOCH":"2025-12-12T05:48:35.480448","MEAN_MOTION":13.16595318,"ECCENTRICITY":0.0001503,"INCLINATION":87.905,"RA_OF_ASC_NODE":265.9953,"ARG_OF_PERICENTER":75.1874,"MEAN_ANOMALY":284.9424,"EPHEMERIS_TYPE":0,"CLASSIFICATION_TYPE":"U","NORAD_CAT_ID":56046,"ELEMENT_SET_NO":999,"REV_AT_EPOCH":13436,"BSTAR":0.00038430894,"MEAN_MOTION_DOT":1.6e-6,"MEAN_MOTION_DDOT":0},{"OBJECT_NAME":"ONEWEB-0538","OBJECT_ID":"2023-043B","EPOCH":"2025-12-12T05:39:27.759744","MEAN_MOTION":13.16596062,"ECCENTRICITY":0.00017066,"INCLINATION":87.9046,"RA_OF_ASC_NODE":266.0005,"ARG_OF_PERICENTER":60.2762,"MEAN_ANOMALY":299.8538,"EPHEMERIS_TYPE":0,"CLASSIFICATION_TYPE":"U","NORAD_CAT_ID":56047,"ELEMENT_SET_NO":999,"REV_AT_EPOCH":13437,"BSTAR":0.00019036285,"MEAN_MOTION_DOT":8.6e-7,"MEAN_MOTION_DDOT":0},{"OBJECT_NAME":"ONEWEB-0546","OBJECT_ID":"2023-043C","EPOCH":"2025-12-12T07:10:40.122336","MEAN_MOTION":13.16595684,"ECCENTRICITY":0.00010047,"INCLINATION":87.9056,"RA_OF_ASC_NODE":265.9798,"ARG_OF_PERICENTER":83.5483,"MEAN_ANOMALY":276.5762,"EPHEMERIS_TYPE":0,"CLASSIFICATION_TYPE":"U","NORAD_CAT_ID":56048,"ELEMENT_SET_NO":999,"REV_AT_EPOCH":13437,"BSTAR":0.00017096013,"MEAN_MOTION_DOT":7.8e-7,"MEAN_MOTION_DDOT":0},{"OBJECT_NAME":"ONEWEB-0547","OBJECT_ID":"2023-043D","EPOCH":"2025-12-12T06:41:26.734560","MEAN_MOTION":13.21825048,"ECCENTRICITY":0.00018183,"INCLINATION":87.9219,"RA_OF_ASC_NODE":281.2527,"ARG_OF_PERICENTER":71.4012,"MEAN_ANOMALY":288.732,"EPHEMERIS_TYPE":0,"CLASSIFICATION_TYPE":"U","NORAD_CAT_ID":56049,"ELEMENT_SET_NO":999,"REV_AT_EPOCH":13353,"BSTAR":0.00013307072,"MEAN_MOTION_DOT":6.8e-7,"MEAN_MOTION_DDOT":0},{"OBJECT_NAME":"ONEWEB-0548","OBJECT_ID":"2023-043E","EPOCH":"2025-12-12T05:56:33.789120","MEAN_MOTION":13.1659403,"ECCENTRICITY":0.00020333,"INCLINATION":87.9044,"RA_OF_ASC_NODE":265.9964,"ARG_OF_PERICENTER":83.1416,"MEAN_ANOMALY":276.9946,"EPHEMERIS_TYPE":0,"CLASSIFICATION_TYPE":"U","NORAD_CAT_ID":56050,"ELEMENT_SET_NO":999,"REV_AT_EPOCH":13436,"BSTAR":0.00013872617,"MEAN_MOTION_DOT":6.6e-7,"MEAN_MOTION_DDOT":0},{"OBJECT_NAME":"ONEWEB-0549","OBJECT_ID":"2023-043F","EPOCH":"2025-12-12T06:30:46.666944","MEAN_MOTION":13.21825335,"ECCENTRICITY":0.00018625,"INCLINATION":87.9216,"RA_OF_ASC_NODE":281.2681,"ARG_OF_PERICENTER":69.5613,"MEAN_ANOMALY":290.5721,"EPHEMERIS_TYPE":0,"CLASSIFICATION_TYPE":"U","NORAD_CAT_ID":56051,"ELEMENT_SET_NO":999,"REV_AT_EPOCH":13353,"BSTAR":8.1139589e-5,"MEAN_MOTION_DOT":4.7e-7,"MEAN_MOTION_DDOT":0},{"OBJECT_NAME":"ONEWEB-0550","OBJECT_ID":"2023-043G","EPOCH":"2025-12-12T06:11:49.248960","MEAN_MOTION":13.21824389,"ECCENTRICITY":0.00017735,"INCLINATION":87.9219,"RA_OF_ASC_NODE":281.2658,"ARG_OF_PERICENTER":80.6806,"MEAN_ANOMALY":279.4529,"EPHEMERIS_TYPE":0,"CLASSIFICATION_TYPE":"U","NORAD_CAT_ID":56052,"ELEMENT_SET_NO":999,"REV_AT_EPOCH":13353,"BSTAR":0.00079783755,"MEAN_MOTION_DOT":3.43e-6,"MEAN_MOTION_DDOT":0},{"OBJECT_NAME":"ONEWEB-0551","OBJECT_ID":"2023-043H","EPOCH":"2025-12-12T06:46:37.736544","MEAN_MOTION":13.15549498,"ECCENTRICITY":0.00019647,"INCLINATION":87.8994,"RA_OF_ASC_NODE":296.5283,"ARG_OF_PERICENTER":73.5965,"MEAN_ANOMALY":286.5381,"EPHEMERIS_TYPE":0,"CLASSIFICATION_TYPE":"U","NORAD_CAT_ID":56053,"ELEMENT_SET_NO":999,"REV_AT_EPOCH":13182,"BSTAR":-0.00029155453,"MEAN_MOTION_DOT":-9.7e-7,"MEAN_MOTION_DDOT":0},{"OBJECT_NAME":"ONEWEB-0552","OBJECT_ID":"2023-043J","EPOCH":"2025-12-12T06:04:42.643776","MEAN_MOTION":13.21827202,"ECCENTRICITY":0.00020138,"INCLINATION":87.9219,"RA_OF_ASC_NODE":281.2756,"ARG_OF_PERICENTER":73.1179,"MEAN_ANOMALY":287.0176,"EPHEMERIS_TYPE":0,"CLASSIFICATION_TYPE":"U","NORAD_CAT_ID":56054,"ELEMENT_SET_NO":999,"REV_AT_EPOCH":13353,"BSTAR":0.00025241805,"MEAN_MOTION_DOT":1.17e-6,"MEAN_MOTION_DDOT":0},{"OBJECT_NAME":"ONEWEB-0553","OBJECT_ID":"2023-043K","EPOCH":"2025-12-12T05:30:20.474496","MEAN_MOTION":13.16594157,"ECCENTRICITY":0.00015732,"INCLINATION":87.9057,"RA_OF_ASC_NODE":266.0007,"ARG_OF_PERICENTER":78.4008,"MEAN_ANOMALY":281.73,"EPHEMERIS_TYPE":0,"CLASSIFICATION_TYPE":"U","NORAD_CAT_ID":56055,"ELEMENT_SET_NO":999,"REV_AT_EPOCH":13437,"BSTAR":0.001640955,"MEAN_MOTION_DOT":6.4e-6,"MEAN_MOTION_DDOT":0},{"OBJECT_NAME":"ONEWEB-0554","OBJECT_ID":"2023-043L","EPOCH":"2025-12-12T07:01:31.613664","MEAN_MOTION":13.16596609,"ECCENTRICITY":0.00018009,"INCLINATION":87.9031,"RA_OF_ASC_NODE":266.0028,"ARG_OF_PERICENTER":81.6487,"MEAN_ANOMALY":278.4849,"EPHEMERIS_TYPE":0,"CLASSIFICATION_TYPE":"U","NORAD_CAT_ID":56056,"ELEMENT_SET_NO":999,"REV_AT_EPOCH":13436,"BSTAR":7.379014e-5,"MEAN_MOTION_DOT":4.1e-7,"MEAN_MOTION_DDOT":0}]
