ONEWEB-0671             
1 55830U 23029AL  25346.25092602  .00000110  00000+0  24150-3 0  9999
2 55830  87.9195 342.1758 0001963  87.2071 272.9286 13.19725327134246
ONEWEB-0672             
1 55831U 23029AM  25346.27736145  .00000119  00000+0  26122-3 0  9999
2 55831  87.9201 311.7113 0001580  87.1830 272.9484 13.20770952136472
ONEWEB-0673             
1 55832U 23029AN  25346.00058483  .00000046  00000+0  81390-4 0  9991
2 55832  87.9210 342.2055 0001927  89.0050 271.1303 13.19726166134214
ONEWEB-0674             
1 55833U 23029AP  25346.00694898  .00000106  00000+0  25139-3 0  9993
2 55833  87.8987 327.0255 0002205  92.8891 267.2491 13.14503654134824
ONEWEB-0675             
1 55834U 23029AQ  25346.24303130  .00000057  00000+0  11052-3 0  9990
2 55834  87.9191 342.1857 0001523  84.2825 275.8481 13.19724489134261
ONEWEB-0720             
1 55835U 23029AR  25346.23513300  .00000067  00000+0  13575-3 0  9995
2 55835  87.9192 342.1853 0002057  80.3491 279.7875 13.19725216134188
ONEWEB-0537             
1 56046U 23043A   25346.24207732  .00000160  00000+0  38431-3 0  9998
2 56046  87.9050 265.9953 0001503  75.1874 284.9424 13.16595318134364
ONEWEB-0538             
1 56047U 23043B   25346.23573796  .00000086  00000+0  19036-3 0  9991
2 56047  87.9046 266.0005 0001706  60.2762 299.8538 13.16596062134375
ONEWEB-0546             
1 56048U 23043C   25346.29907549  .00000078  00000+0  17096-3 0  9990
2 56048  87.9056 265.9798 0001004  83.5483 276.5762 13.16595684134373
ONEWEB-0547             
1 56049U 23043D   25346.27878165  .00000068  00000+0  13307-3 0  9990
2 56049  87.9219 281.2527 0001818  71.4012 288.7320 13.21825048133531
ONEWEB-0548             
1 56050U 23043E   25346.24761330  .00000066  00000+0  13873-3 0  9990
2 56050  87.9044 265.9964 0002033  83.1416 276.9946 13.16594030134364
ONEWEB-0549             
1 56051U 23043F   25346.27137346  .00000047  00000+0  81140-4 0  9990
2 56051  87.9216 281.2681 0001862  69.5613 290.5721 13.21825335133531
ONEWEB-0550             
1 56052U 23043G   25346.25820890  .00000343  00000+0  79784-3 0  9991
2 56052  87.9219 281.2658 0001773  80.6806 279.4529 13.21824389133538
ONEWEB-0551             
1 56053U 23043H   25346.28238121 -.00000097  00000+0 -29155-3 0  9990
2 56053  87.8994 296.5283 0001964  73.5965 286.5381 13.15549498131823
ONEWEB-0552             
1 56054U 23043J   25346.25327134  .00000117  00000+0  25242-3 0  9995
2 56054  87.9219 281.2756 0002013  73.1179 287.0176 13.21827202133537
ONEWEB-0553             
1 56055U 23043K   25346.22940364  .00000640  00000+0  16410-2 0  9996
2 56055  87.9057 266.0007 0001573  78.4008 281.7300 13.16594157134374
ONEWEB-0554             
1 56056U 23043L   25346.29272701  .00000041  00000+0  73790-4 0  9998
2 56056  87.9031 266.0028 0001800  81.6487 278.4849 13.16596609134364
